IXPE                    
1 49954U 21121A   24123.58334491  .00003662  00000+0  23746-3 0  9998
2 49954   0.2313  11.8723 0010136 322.7170  78.4988 14.97571899  4690
